<?xml version="1.0" encoding="UTF-8"?>
<gpx xmlns="http://www.topografix.com/GPX/1/1" xmlns:gpxtpx="http://www.garmin.com/xmlschemas/TrackPointExtension/v1" xmlns:xsi="http://www.w3.org/2001/XMLSchema-instance" xsi:schemaLocation="http://www.topografix.com/GPX/1/1 http://www.topografix.com/GPX/1/1/gpx.xsd" version="1.1" creator="gpx.py -- https://github.com/tkrajina/gpxpy">
  <trk>
    <trkseg>
      <trkpt lat="25.018050105096687" lon="121.51700573702445">
        <ele>15.503804781474173</ele>
        <time>2024-09-06T23:06:28Z</time>
      </trkpt>
      <trkpt lat="25.018014388945517" lon="121.51709682416372">
        <ele>11.776364462450147</ele>
        <time>2024-09-06T23:06:32Z</time>
      </trkpt>
      <trkpt lat="25.017982053448787" lon="121.51720191118208">
        <ele>12.91737044043839</ele>
        <time>2024-09-06T23:06:37Z</time>
      </trkpt>
      <trkpt lat="25.01794948232505" lon="121.5173019344835">
        <ele>11.631918483413756</ele>
        <time>2024-09-06T23:06:41Z</time>
      </trkpt>
      <trkpt lat="25.017916926498025" lon="121.5174078578503">
        <ele>11.575823242776096</ele>
        <time>2024-09-06T23:06:45Z</time>
      </trkpt>
      <trkpt lat="25.017877327757677" lon="121.51750205562809">
        <ele>11.420074181631207</ele>
        <time>2024-09-06T23:06:49Z</time>
      </trkpt>
      <trkpt lat="25.017846023889444" lon="121.5176171625481">
        <ele>12.67604764457792</ele>
        <time>2024-09-06T23:06:54Z</time>
      </trkpt>
      <trkpt lat="25.017806380004476" lon="121.51772740173031">
        <ele>13.898513888008893</ele>
        <time>2024-09-06T23:06:58.999000Z</time>
      </trkpt>
      <trkpt lat="25.01778578168836" lon="121.51782620225669">
        <ele>15.116762740537524</ele>
        <time>2024-09-06T23:07:02.999000Z</time>
      </trkpt>
      <trkpt lat="25.01773429997139" lon="121.51791751217264">
        <ele>12.457085765898228</ele>
        <time>2024-09-06T23:07:06.999000Z</time>
      </trkpt>
      <trkpt lat="25.01770368754962" lon="121.51802205427533">
        <ele>11.045766442082822</ele>
        <time>2024-09-06T23:07:10.999000Z</time>
      </trkpt>
      <trkpt lat="25.01766409167439" lon="121.51812074463973">
        <ele>12.842086309567094</ele>
        <time>2024-09-06T23:07:14.999000Z</time>
      </trkpt>
      <trkpt lat="25.01762539033999" lon="121.518240234412">
        <ele>12.299523692578077</ele>
        <time>2024-09-06T23:07:19.999000Z</time>
      </trkpt>
      <trkpt lat="25.01759040813353" lon="121.51833502455806">
        <ele>15.799481777474284</ele>
        <time>2024-09-06T23:07:23.999000Z</time>
      </trkpt>
      <trkpt lat="25.01754754453454" lon="121.51843115446529">
        <ele>17.1020086761564</ele>
        <time>2024-09-06T23:07:27.999000Z</time>
      </trkpt>
      <trkpt lat="25.01749350257576" lon="121.51851234108385">
        <ele>14.889268385246396</ele>
        <time>2024-09-06T23:07:31.999000Z</time>
      </trkpt>
      <trkpt lat="25.01744317202788" lon="121.51860195442588">
        <ele>13.557088429108262</ele>
        <time>2024-09-06T23:07:35.999000Z</time>
      </trkpt>
      <trkpt lat="25.017383175131567" lon="121.51870980669236">
        <ele>11.731748746708035</ele>
        <time>2024-09-06T23:07:40.999000Z</time>
      </trkpt>
      <trkpt lat="25.017337518118417" lon="121.51880836782992">
        <ele>13.90462339296937</ele>
        <time>2024-09-06T23:07:44.999000Z</time>
      </trkpt>
      <trkpt lat="25.017286155271126" lon="121.51889137459186">
        <ele>13.183185220696032</ele>
        <time>2024-09-06T23:07:48.999000Z</time>
      </trkpt>
      <trkpt lat="25.017230317920575" lon="121.51898533703967">
        <ele>13.104219189845026</ele>
        <time>2024-09-06T23:07:52.999000Z</time>
      </trkpt>
      <trkpt lat="25.017182297113525" lon="121.51907392461925">
        <ele>11.778358776122332</ele>
        <time>2024-09-06T23:07:56.999000Z</time>
      </trkpt>
      <trkpt lat="25.017127467132077" lon="121.51915684001952">
        <ele>12.272111368365586</ele>
        <time>2024-09-06T23:08:00.999000Z</time>
      </trkpt>
      <trkpt lat="25.017075435515938" lon="121.51923837093663">
        <ele>13.146428434178233</ele>
        <time>2024-09-06T23:08:04.999000Z</time>
      </trkpt>
      <trkpt lat="25.017019214446155" lon="121.5193259306418">
        <ele>13.921430261805654</ele>
        <time>2024-09-06T23:08:08.999000Z</time>
      </trkpt>
      <trkpt lat="25.016957057593284" lon="121.51941622641677">
        <ele>11.835560047999024</ele>
        <time>2024-09-06T23:08:12.999000Z</time>
      </trkpt>
      <trkpt lat="25.01689548236225" lon="121.51950989144497">
        <ele>12.010871165432036</ele>
        <time>2024-09-06T23:08:16.999000Z</time>
      </trkpt>
      <trkpt lat="25.01683521493791" lon="121.51958810486123">
        <ele>11.379287748597562</ele>
        <time>2024-09-06T23:08:21Z</time>
      </trkpt>
      <trkpt lat="25.01676409370872" lon="121.51968404138943">
        <ele>11.86931720469147</ele>
        <time>2024-09-06T23:08:26Z</time>
      </trkpt>
      <trkpt lat="25.016687788737375" lon="121.51975695741773">
        <ele>11.021211718209088</ele>
        <time>2024-09-06T23:08:30Z</time>
      </trkpt>
      <trkpt lat="25.01662040983788" lon="121.51983474922632">
        <ele>10.772562858648598</ele>
        <time>2024-09-06T23:08:34Z</time>
      </trkpt>
      <trkpt lat="25.01656384653088" lon="121.51992236455067">
        <ele>11.094426601193845</ele>
        <time>2024-09-06T23:08:38Z</time>
      </trkpt>
      <trkpt lat="25.016497771681664" lon="121.51999936511574">
        <ele>11.308215863071382</ele>
        <time>2024-09-06T23:08:42Z</time>
      </trkpt>
      <trkpt lat="25.016433728840795" lon="121.52009090928793">
        <ele>13.399455060251057</ele>
        <time>2024-09-06T23:08:46Z</time>
      </trkpt>
      <trkpt lat="25.0163727771619" lon="121.52017177983836">
        <ele>13.940186501480639</ele>
        <time>2024-09-06T23:08:50Z</time>
      </trkpt>
      <trkpt lat="25.016302287911277" lon="121.52024667330443">
        <ele>15.051164438016713</ele>
        <time>2024-09-06T23:08:54Z</time>
      </trkpt>
      <trkpt lat="25.016225568194574" lon="121.52031834216396">
        <ele>13.940255736000836</ele>
        <time>2024-09-06T23:08:58Z</time>
      </trkpt>
      <trkpt lat="25.01614702441918" lon="121.52040015664599">
        <ele>12.051611469127238</ele>
        <time>2024-09-06T23:09:02Z</time>
      </trkpt>
      <trkpt lat="25.01606054222496" lon="121.52046365745032">
        <ele>10.833532189019024</ele>
        <time>2024-09-06T23:09:06Z</time>
      </trkpt>
      <trkpt lat="25.015983067600082" lon="121.52052672783205">
        <ele>11.10832701344043</ele>
        <time>2024-09-06T23:09:10Z</time>
      </trkpt>
      <trkpt lat="25.015895280171936" lon="121.52058926887838">
        <ele>12.525716628879309</ele>
        <time>2024-09-06T23:09:14Z</time>
      </trkpt>
      <trkpt lat="25.015812700919376" lon="121.5206444416291">
        <ele>12.958677042275667</ele>
        <time>2024-09-06T23:09:18Z</time>
      </trkpt>
      <trkpt lat="25.015736180708235" lon="121.52071277938586">
        <ele>12.755201450549066</ele>
        <time>2024-09-06T23:09:22Z</time>
      </trkpt>
      <trkpt lat="25.01567467534299" lon="121.52080448035629">
        <ele>12.522710426710546</ele>
        <time>2024-09-06T23:09:26Z</time>
      </trkpt>
      <trkpt lat="25.015590721216103" lon="121.52086803373388">
        <ele>11.35408958606422</ele>
        <time>2024-09-06T23:09:30Z</time>
      </trkpt>
      <trkpt lat="25.015511639337237" lon="121.52094592437962">
        <ele>11.993552399799228</ele>
        <time>2024-09-06T23:09:34Z</time>
      </trkpt>
      <trkpt lat="25.015427715678182" lon="121.5210109538929">
        <ele>12.439389998093247</ele>
        <time>2024-09-06T23:09:37.999000Z</time>
      </trkpt>
      <trkpt lat="25.01534752290292" lon="121.52108562581351">
        <ele>13.046792245469987</ele>
        <time>2024-09-06T23:09:41.999000Z</time>
      </trkpt>
      <trkpt lat="25.015260296017324" lon="121.52115662076474">
        <ele>11.124362920410931</ele>
        <time>2024-09-06T23:09:45.999000Z</time>
      </trkpt>
      <trkpt lat="25.01516285987532" lon="121.5212102004955">
        <ele>10.103251272812486</ele>
        <time>2024-09-06T23:09:49.999000Z</time>
      </trkpt>
      <trkpt lat="25.015068045739824" lon="121.52126058941519">
        <ele>9.210430190898478</ele>
        <time>2024-09-06T23:09:53.999000Z</time>
      </trkpt>
      <trkpt lat="25.014980960381248" lon="121.52132414283125">
        <ele>10.436426864005625</ele>
        <time>2024-09-06T23:09:57.999000Z</time>
      </trkpt>
      <trkpt lat="25.01507634280666" lon="121.52129839279777">
        <ele>7.943346972577274</ele>
        <time>2024-09-06T23:10:04.999000Z</time>
      </trkpt>
      <trkpt lat="25.015150633689544" lon="121.52121357162919">
        <ele>6.332513497211039</ele>
        <time>2024-09-06T23:10:08.999000Z</time>
      </trkpt>
      <trkpt lat="25.015232473546686" lon="121.52113952083269">
        <ele>10.37992839794606</ele>
        <time>2024-09-06T23:10:12.999000Z</time>
      </trkpt>
      <trkpt lat="25.01531706881301" lon="121.52107909320394">
        <ele>12.095516943372786</ele>
        <time>2024-09-06T23:10:17Z</time>
      </trkpt>
      <trkpt lat="25.015418622409438" lon="121.52101501338002">
        <ele>13.247340977191925</ele>
        <time>2024-09-06T23:10:21Z</time>
      </trkpt>
      <trkpt lat="25.01550895839952" lon="121.5209636735643">
        <ele>12.744707402773201</ele>
        <time>2024-09-06T23:10:25Z</time>
      </trkpt>
      <trkpt lat="25.01561303494224" lon="121.52093457870913">
        <ele>12.216717105358839</ele>
        <time>2024-09-06T23:10:29Z</time>
      </trkpt>
      <trkpt lat="25.015709590380336" lon="121.52088955787175">
        <ele>10.546492614783347</ele>
        <time>2024-09-06T23:10:33Z</time>
      </trkpt>
      <trkpt lat="25.015801721618608" lon="121.52083780577162">
        <ele>10.144257608801126</ele>
        <time>2024-09-06T23:10:37Z</time>
      </trkpt>
      <trkpt lat="25.015894134279907" lon="121.52078859309252">
        <ele>10.644596619531512</ele>
        <time>2024-09-06T23:10:41Z</time>
      </trkpt>
      <trkpt lat="25.01597550321436" lon="121.52071372219234">
        <ele>10.92054995149374</ele>
        <time>2024-09-06T23:10:45Z</time>
      </trkpt>
      <trkpt lat="25.016065925592738" lon="121.52066993268674">
        <ele>9.509886714629829</ele>
        <time>2024-09-06T23:10:49Z</time>
      </trkpt>
      <trkpt lat="25.016156483549064" lon="121.52062172931912">
        <ele>7.948040133342147</ele>
        <time>2024-09-06T23:10:53Z</time>
      </trkpt>
      <trkpt lat="25.016245545248175" lon="121.52056765217671">
        <ele>8.918102991767228</ele>
        <time>2024-09-06T23:10:57Z</time>
      </trkpt>
      <trkpt lat="25.016335475505187" lon="121.52051304028083">
        <ele>7.8291135430336</ele>
        <time>2024-09-06T23:11:01Z</time>
      </trkpt>
      <trkpt lat="25.01642427349902" lon="121.52045875586592">
        <ele>6.8782257763668895</ele>
        <time>2024-09-06T23:11:05Z</time>
      </trkpt>
      <trkpt lat="25.0165169244427" lon="121.52039207206832">
        <ele>7.1793150110170245</ele>
        <time>2024-09-06T23:11:09Z</time>
      </trkpt>
      <trkpt lat="25.016616324686204" lon="121.52033885759022">
        <ele>8.604256958700716</ele>
        <time>2024-09-06T23:11:13Z</time>
      </trkpt>
      <trkpt lat="25.016718884736907" lon="121.520293141439">
        <ele>9.49648944567889</ele>
        <time>2024-09-06T23:11:17Z</time>
      </trkpt>
      <trkpt lat="25.01682319062906" lon="121.52026681411901">
        <ele>8.845966505818069</ele>
        <time>2024-09-06T23:11:21Z</time>
      </trkpt>
      <trkpt lat="25.01693528165656" lon="121.52023512961914">
        <ele>8.623401438817382</ele>
        <time>2024-09-06T23:11:25Z</time>
      </trkpt>
      <trkpt lat="25.01704031236618" lon="121.52019561647633">
        <ele>5.930156547576189</ele>
        <time>2024-09-06T23:11:29Z</time>
      </trkpt>
      <trkpt lat="25.01713850682605" lon="121.52015287695285">
        <ele>5.598374539986253</ele>
        <time>2024-09-06T23:11:33Z</time>
      </trkpt>
      <trkpt lat="25.017231707894698" lon="121.52009148055716">
        <ele>5.328766300342977</ele>
        <time>2024-09-06T23:11:37Z</time>
      </trkpt>
      <trkpt lat="25.017322041853717" lon="121.52002265749755">
        <ele>5.780833398923278</ele>
        <time>2024-09-06T23:11:41Z</time>
      </trkpt>
      <trkpt lat="25.017414927690158" lon="121.51994383903346">
        <ele>5.606164149008691</ele>
        <time>2024-09-06T23:11:45Z</time>
      </trkpt>
      <trkpt lat="25.01749898613166" lon="121.51987285018456">
        <ele>5.263850965537131</ele>
        <time>2024-09-06T23:11:49Z</time>
      </trkpt>
      <trkpt lat="25.01758292126563" lon="121.51979555496148">
        <ele>4.87853888515383</ele>
        <time>2024-09-06T23:11:53Z</time>
      </trkpt>
      <trkpt lat="25.01764807828981" lon="121.51969454368715">
        <ele>5.764319703914225</ele>
        <time>2024-09-06T23:11:57Z</time>
      </trkpt>
      <trkpt lat="25.01772481008008" lon="121.51959775322564">
        <ele>5.9471203945577145</ele>
        <time>2024-09-06T23:12:01Z</time>
      </trkpt>
      <trkpt lat="25.017807082830746" lon="121.51951573558944">
        <ele>5.508264197036624</ele>
        <time>2024-09-06T23:12:05Z</time>
      </trkpt>
      <trkpt lat="25.017881572005347" lon="121.51942933361768">
        <ele>4.989215618930757</ele>
        <time>2024-09-06T23:12:09Z</time>
      </trkpt>
      <trkpt lat="25.017942361859397" lon="121.51933139833758">
        <ele>5.159276455640793</ele>
        <time>2024-09-06T23:12:13Z</time>
      </trkpt>
      <trkpt lat="25.01801719290724" lon="121.51924693945521">
        <ele>5.032119830138981</ele>
        <time>2024-09-06T23:12:17Z</time>
      </trkpt>
      <trkpt lat="25.01807973815624" lon="121.51913719553451">
        <ele>6.63076829444617</ele>
        <time>2024-09-06T23:12:21Z</time>
      </trkpt>
      <trkpt lat="25.01814592236224" lon="121.51905138455172">
        <ele>6.848718917928636</ele>
        <time>2024-09-06T23:12:25Z</time>
      </trkpt>
      <trkpt lat="25.018205676546156" lon="121.5189586709991">
        <ele>6.168128972873092</ele>
        <time>2024-09-06T23:12:29Z</time>
      </trkpt>
      <trkpt lat="25.0182667829351" lon="121.51886594917893">
        <ele>5.360174747183919</ele>
        <time>2024-09-06T23:12:33Z</time>
      </trkpt>
      <trkpt lat="25.01833336152506" lon="121.51877525926417">
        <ele>5.180583883076906</ele>
        <time>2024-09-06T23:12:37Z</time>
      </trkpt>
      <trkpt lat="25.01840788499384" lon="121.5186905119771">
        <ele>5.7615994699299335</ele>
        <time>2024-09-06T23:12:41Z</time>
      </trkpt>
      <trkpt lat="25.018487675382016" lon="121.51860906507292">
        <ele>5.136390809901059</ele>
        <time>2024-09-06T23:12:45Z</time>
      </trkpt>
      <trkpt lat="25.018580077312375" lon="121.51854443760465">
        <ele>5.005218195728958</ele>
        <time>2024-09-06T23:12:49Z</time>
      </trkpt>
      <trkpt lat="25.01867538329141" lon="121.51848712904632">
        <ele>5.051713477820158</ele>
        <time>2024-09-06T23:12:53Z</time>
      </trkpt>
      <trkpt lat="25.018770199807882" lon="121.51842501520063">
        <ele>6.06970308162272</ele>
        <time>2024-09-06T23:12:57Z</time>
      </trkpt>
      <trkpt lat="25.01885840203438" lon="121.5183698206856">
        <ele>7.092516193166375</ele>
        <time>2024-09-06T23:13:01Z</time>
      </trkpt>
      <trkpt lat="25.018935137974125" lon="121.51828670166687">
        <ele>6.85257475823164</ele>
        <time>2024-09-06T23:13:05Z</time>
      </trkpt>
      <trkpt lat="25.01897078607152" lon="121.51817028159884">
        <ele>7.089804318733513</ele>
        <time>2024-09-06T23:13:09Z</time>
      </trkpt>
      <trkpt lat="25.018975182052113" lon="121.5180658005103">
        <ele>6.786581767722964</ele>
        <time>2024-09-06T23:13:13Z</time>
      </trkpt>
      <trkpt lat="25.01904126293239" lon="121.5179723014377">
        <ele>7.622135484591126</ele>
        <time>2024-09-06T23:13:17Z</time>
      </trkpt>
      <trkpt lat="25.019109262848843" lon="121.5178799183866">
        <ele>6.87362346611917</ele>
        <time>2024-09-06T23:13:21Z</time>
      </trkpt>
      <trkpt lat="25.01919300819195" lon="121.51780407297255">
        <ele>7.122863098047674</ele>
        <time>2024-09-06T23:13:25Z</time>
      </trkpt>
      <trkpt lat="25.01928001305033" lon="121.51773851854772">
        <ele>5.808020165190101</ele>
        <time>2024-09-06T23:13:29Z</time>
      </trkpt>
      <trkpt lat="25.01936493383931" lon="121.51766638800366">
        <ele>5.8667905274778605</ele>
        <time>2024-09-06T23:13:33Z</time>
      </trkpt>
      <trkpt lat="25.019435673309545" lon="121.51759649830227">
        <ele>5.484081346541643</ele>
        <time>2024-09-06T23:13:37Z</time>
      </trkpt>
      <trkpt lat="25.019496694110234" lon="121.51749705934704">
        <ele>5.532312483526766</ele>
        <time>2024-09-06T23:13:41Z</time>
      </trkpt>
      <trkpt lat="25.0195229557424" lon="121.51738772394668">
        <ele>6.12297217361629</ele>
        <time>2024-09-06T23:13:45Z</time>
      </trkpt>
      <trkpt lat="25.01954160863935" lon="121.51726355195692">
        <ele>6.682686921209097</ele>
        <time>2024-09-06T23:13:49Z</time>
      </trkpt>
      <trkpt lat="25.019470892591457" lon="121.51719637978994">
        <ele>7.327665236778557</ele>
        <time>2024-09-06T23:13:53Z</time>
      </trkpt>
      <trkpt lat="25.01937586670299" lon="121.51716548180774">
        <ele>7.600977596826851</ele>
        <time>2024-09-06T23:13:57Z</time>
      </trkpt>
      <trkpt lat="25.01927827249919" lon="121.51714008454485">
        <ele>8.329167107120156</ele>
        <time>2024-09-06T23:14:01Z</time>
      </trkpt>
      <trkpt lat="25.019188575889604" lon="121.5171042258552">
        <ele>8.357290994375944</ele>
        <time>2024-09-06T23:14:05Z</time>
      </trkpt>
      <trkpt lat="25.01910197990885" lon="121.5170693469099">
        <ele>8.741910674609244</ele>
        <time>2024-09-06T23:14:09Z</time>
      </trkpt>
      <trkpt lat="25.01900326343136" lon="121.51704543920327">
        <ele>9.140988602302969</ele>
        <time>2024-09-06T23:14:13Z</time>
      </trkpt>
      <trkpt lat="25.018910175306345" lon="121.517023679944">
        <ele>9.174077828414738</ele>
        <time>2024-09-06T23:14:17Z</time>
      </trkpt>
      <trkpt lat="25.01881633723511" lon="121.5170112614794">
        <ele>8.995202132500708</ele>
        <time>2024-09-06T23:14:21Z</time>
      </trkpt>
      <trkpt lat="25.018719527090724" lon="121.51698375260054">
        <ele>9.5208501778543</ele>
        <time>2024-09-06T23:14:25Z</time>
      </trkpt>
      <trkpt lat="25.018626027522814" lon="121.51695867458066">
        <ele>9.267588315531611</ele>
        <time>2024-09-06T23:14:29Z</time>
      </trkpt>
      <trkpt lat="25.018523864742694" lon="121.51692930154599">
        <ele>9.220497156493366</ele>
        <time>2024-09-06T23:14:33Z</time>
      </trkpt>
      <trkpt lat="25.018422699542057" lon="121.51689431430133">
        <ele>9.27319257054478</ele>
        <time>2024-09-06T23:14:37Z</time>
      </trkpt>
      <trkpt lat="25.018321857820364" lon="121.51689402774488">
        <ele>9.4988669808954</ele>
        <time>2024-09-06T23:14:41Z</time>
      </trkpt>
      <trkpt lat="25.018281265725516" lon="121.51700012137572">
        <ele>8.867110551334918</ele>
        <time>2024-09-06T23:14:45Z</time>
      </trkpt>
      <trkpt lat="25.018240619709257" lon="121.51710203958879">
        <ele>10.136239651590586</ele>
        <time>2024-09-06T23:14:49Z</time>
      </trkpt>
      <trkpt lat="25.01822445872129" lon="121.5172094605502">
        <ele>10.734486926347017</ele>
        <time>2024-09-06T23:14:53Z</time>
      </trkpt>
      <trkpt lat="25.01816534123868" lon="121.5172942338407">
        <ele>10.320328567177057</ele>
        <time>2024-09-06T23:14:57Z</time>
      </trkpt>
      <trkpt lat="25.0180488949638" lon="121.51729856904326">
        <ele>11.031951393000782</ele>
        <time>2024-09-06T23:15:01Z</time>
      </trkpt>
      <trkpt lat="25.017948959200837" lon="121.51732919505258">
        <ele>10.614456813782454</ele>
        <time>2024-09-06T23:15:05Z</time>
      </trkpt>
      <trkpt lat="25.01791170392975" lon="121.51744188978847">
        <ele>10.871284935623407</ele>
        <time>2024-09-06T23:15:09Z</time>
      </trkpt>
      <trkpt lat="25.017882615700614" lon="121.517543544413">
        <ele>11.204944305121899</ele>
        <time>2024-09-06T23:15:13Z</time>
      </trkpt>
      <trkpt lat="25.017852531037267" lon="121.51763741777455">
        <ele>11.111272281967103</ele>
        <time>2024-09-06T23:15:17Z</time>
      </trkpt>
      <trkpt lat="25.017828093125054" lon="121.51773348826566">
        <ele>10.67742749210447</ele>
        <time>2024-09-06T23:15:21Z</time>
      </trkpt>
      <trkpt lat="25.017771566293494" lon="121.51783190178944">
        <ele>10.157783807255328</ele>
        <time>2024-09-06T23:15:25Z</time>
      </trkpt>
      <trkpt lat="25.017730811126434" lon="121.51794748000147">
        <ele>6.932712959125638</ele>
        <time>2024-09-06T23:15:30Z</time>
      </trkpt>
      <trkpt lat="25.01768887654458" lon="121.51805738890978">
        <ele>8.227241800166667</ele>
        <time>2024-09-06T23:15:34Z</time>
      </trkpt>
      <trkpt lat="25.017652112032938" lon="121.51816218907992">
        <ele>10.593983861617744</ele>
        <time>2024-09-06T23:15:38Z</time>
      </trkpt>
      <trkpt lat="25.01761069181228" lon="121.51826540713752">
        <ele>11.528638531453907</ele>
        <time>2024-09-06T23:15:42Z</time>
      </trkpt>
      <trkpt lat="25.017557382867896" lon="121.51836013228773">
        <ele>11.264755808748305</ele>
        <time>2024-09-06T23:15:46Z</time>
      </trkpt>
      <trkpt lat="25.01749926717246" lon="121.51845904545452">
        <ele>9.577196664176881</ele>
        <time>2024-09-06T23:15:50Z</time>
      </trkpt>
      <trkpt lat="25.01746009158742" lon="121.51857000653924">
        <ele>12.225587979890406</ele>
        <time>2024-09-06T23:15:54Z</time>
      </trkpt>
      <trkpt lat="25.017397441142144" lon="121.51865555223272">
        <ele>13.914551572874188</ele>
        <time>2024-09-06T23:15:58Z</time>
      </trkpt>
      <trkpt lat="25.01734481085078" lon="121.51875569857948">
        <ele>12.899436764419079</ele>
        <time>2024-09-06T23:16:02Z</time>
      </trkpt>
      <trkpt lat="25.01728615134643" lon="121.51885419015302">
        <ele>13.460421464405954</ele>
        <time>2024-09-06T23:16:06Z</time>
      </trkpt>
      <trkpt lat="25.017226182871475" lon="121.5189296206546">
        <ele>11.813923098146915</ele>
        <time>2024-09-06T23:16:10Z</time>
      </trkpt>
      <trkpt lat="25.01716806345162" lon="121.51902521693401">
        <ele>10.822569496929646</ele>
        <time>2024-09-06T23:16:14Z</time>
      </trkpt>
      <trkpt lat="25.017121583406535" lon="121.51912367953726">
        <ele>12.10817944072187</ele>
        <time>2024-09-06T23:16:18Z</time>
      </trkpt>
      <trkpt lat="25.01707073852763" lon="121.5192376705289">
        <ele>12.127175876870751</ele>
        <time>2024-09-06T23:16:23Z</time>
      </trkpt>
      <trkpt lat="25.017002775683256" lon="121.51933636852247">
        <ele>10.432397026568651</ele>
        <time>2024-09-06T23:16:28Z</time>
      </trkpt>
      <trkpt lat="25.016933399904698" lon="121.51942138838987">
        <ele>11.431048934347928</ele>
        <time>2024-09-06T23:16:32Z</time>
      </trkpt>
      <trkpt lat="25.0168767325388" lon="121.51950596794003">
        <ele>8.506781221367419</ele>
        <time>2024-09-06T23:16:36Z</time>
      </trkpt>
      <trkpt lat="25.01681730622678" lon="121.51959784569341">
        <ele>12.183368471451104</ele>
        <time>2024-09-06T23:16:40Z</time>
      </trkpt>
      <trkpt lat="25.01673182413655" lon="121.51967437381258">
        <ele>8.871662029996514</ele>
        <time>2024-09-06T23:16:45Z</time>
      </trkpt>
      <trkpt lat="25.016675375069106" lon="121.519762328806">
        <ele>11.21493877377361</ele>
        <time>2024-09-06T23:16:49Z</time>
      </trkpt>
      <trkpt lat="25.016627438022507" lon="121.51985765486518">
        <ele>11.594482844695449</ele>
        <time>2024-09-06T23:16:53Z</time>
      </trkpt>
      <trkpt lat="25.016560970576702" lon="121.51993954282429">
        <ele>12.47151502314955</ele>
        <time>2024-09-06T23:16:57Z</time>
      </trkpt>
      <trkpt lat="25.01649976730347" lon="121.5200176460492">
        <ele>12.415422501973808</ele>
        <time>2024-09-06T23:17:01Z</time>
      </trkpt>
      <trkpt lat="25.016415538105534" lon="121.52009653685826">
        <ele>12.366536083631217</ele>
        <time>2024-09-06T23:17:05Z</time>
      </trkpt>
      <trkpt lat="25.01633724935071" lon="121.52017542161869">
        <ele>12.777666117995977</ele>
        <time>2024-09-06T23:17:09Z</time>
      </trkpt>
      <trkpt lat="25.016266978165298" lon="121.52025557074246">
        <ele>12.091529126279056</ele>
        <time>2024-09-06T23:17:13Z</time>
      </trkpt>
      <trkpt lat="25.016187040721743" lon="121.52034280361823">
        <ele>11.932984287850559</ele>
        <time>2024-09-06T23:17:17Z</time>
      </trkpt>
      <trkpt lat="25.016112470201993" lon="121.52042347626042">
        <ele>12.050941284745932</ele>
        <time>2024-09-06T23:17:21Z</time>
      </trkpt>
      <trkpt lat="25.01604365330877" lon="121.52050997771579">
        <ele>10.910924521274865</ele>
        <time>2024-09-06T23:17:25Z</time>
      </trkpt>
      <trkpt lat="25.015954016431053" lon="121.52056011979549">
        <ele>10.718032781034708</ele>
        <time>2024-09-06T23:17:29Z</time>
      </trkpt>
      <trkpt lat="25.0158605866852" lon="121.52059849034674">
        <ele>10.887433137744665</ele>
        <time>2024-09-06T23:17:33Z</time>
      </trkpt>
      <trkpt lat="25.015780840301332" lon="121.52066295887276">
        <ele>11.852472086437047</ele>
        <time>2024-09-06T23:17:37Z</time>
      </trkpt>
      <trkpt lat="25.015717803295033" lon="121.52074745462424">
        <ele>11.917839271947742</ele>
        <time>2024-09-06T23:17:41Z</time>
      </trkpt>
      <trkpt lat="25.01564930564671" lon="121.52083668241103">
        <ele>12.906124335713685</ele>
        <time>2024-09-06T23:17:45Z</time>
      </trkpt>
      <trkpt lat="25.015570927672876" lon="121.52091175987674">
        <ele>12.553262716159225</ele>
        <time>2024-09-06T23:17:49Z</time>
      </trkpt>
      <trkpt lat="25.015485117143335" lon="121.52098079201967">
        <ele>12.004594372585416</ele>
        <time>2024-09-06T23:17:53Z</time>
      </trkpt>
      <trkpt lat="25.015415526657392" lon="121.52106187157001">
        <ele>13.190525548532605</ele>
        <time>2024-09-06T23:17:57Z</time>
      </trkpt>
      <trkpt lat="25.01534186760047" lon="121.52113613397353">
        <ele>12.647401404567063</ele>
        <time>2024-09-06T23:18:01Z</time>
      </trkpt>
      <trkpt lat="25.01524800177743" lon="121.52119480839202">
        <ele>11.650526599027216</ele>
        <time>2024-09-06T23:18:05Z</time>
      </trkpt>
      <trkpt lat="25.015149095902864" lon="121.52124232891293">
        <ele>9.682985903695226</ele>
        <time>2024-09-06T23:18:09Z</time>
      </trkpt>
      <trkpt lat="25.015059903552096" lon="121.52130395164174">
        <ele>8.373754455707967</ele>
        <time>2024-09-06T23:18:13Z</time>
      </trkpt>
      <trkpt lat="25.014967267267046" lon="121.52135767679391">
        <ele>8.484861041419208</ele>
        <time>2024-09-06T23:18:17Z</time>
      </trkpt>
      <trkpt lat="25.01506432755607" lon="121.52130351099203">
        <ele>9.572925533168018</ele>
        <time>2024-09-06T23:18:21Z</time>
      </trkpt>
      <trkpt lat="25.015146045783734" lon="121.52122076279993">
        <ele>8.148712143301964</ele>
        <time>2024-09-06T23:18:25Z</time>
      </trkpt>
      <trkpt lat="25.015235149672698" lon="121.52115437205185">
        <ele>10.10593649186194</ele>
        <time>2024-09-06T23:18:29Z</time>
      </trkpt>
      <trkpt lat="25.015327135054456" lon="121.52107641651044">
        <ele>12.324431512504816</ele>
        <time>2024-09-06T23:18:33Z</time>
      </trkpt>
      <trkpt lat="25.015433627920256" lon="121.5210172177374">
        <ele>11.658214068971574</ele>
        <time>2024-09-06T23:18:37Z</time>
      </trkpt>
      <trkpt lat="25.015536554458027" lon="121.52096427471287">
        <ele>11.277766910381615</ele>
        <time>2024-09-06T23:18:41Z</time>
      </trkpt>
      <trkpt lat="25.01564784117654" lon="121.52092549258442">
        <ele>11.679664495401084</ele>
        <time>2024-09-06T23:18:45Z</time>
      </trkpt>
      <trkpt lat="25.015746865176162" lon="121.52087566188065">
        <ele>10.658536647446454</ele>
        <time>2024-09-06T23:18:49Z</time>
      </trkpt>
      <trkpt lat="25.015838142666357" lon="121.52082074790988">
        <ele>11.36647056043148</ele>
        <time>2024-09-06T23:18:53Z</time>
      </trkpt>
      <trkpt lat="25.015932712568336" lon="121.52077278442381">
        <ele>9.365532995201647</ele>
        <time>2024-09-06T23:18:57Z</time>
      </trkpt>
      <trkpt lat="25.016017318118045" lon="121.5207066554209">
        <ele>11.208166673779488</ele>
        <time>2024-09-06T23:19:01Z</time>
      </trkpt>
      <trkpt lat="25.016105849490103" lon="121.52064803288194">
        <ele>9.093402973376215</ele>
        <time>2024-09-06T23:19:05Z</time>
      </trkpt>
      <trkpt lat="25.016201956665977" lon="121.52059200258424">
        <ele>7.256493676453829</ele>
        <time>2024-09-06T23:19:09Z</time>
      </trkpt>
      <trkpt lat="25.016282502176693" lon="121.52054222247102">
        <ele>9.823400027118623</ele>
        <time>2024-09-06T23:19:12Z</time>
      </trkpt>
      <trkpt lat="25.01637943027823" lon="121.52049864866976">
        <ele>7.975676072761416</ele>
        <time>2024-09-06T23:19:16Z</time>
      </trkpt>
      <trkpt lat="25.0164704685408" lon="121.520448897609">
        <ele>5.677232439629734</ele>
        <time>2024-09-06T23:19:20Z</time>
      </trkpt>
      <trkpt lat="25.016579575174635" lon="121.52038643778305">
        <ele>8.068432001397014</ele>
        <time>2024-09-06T23:19:24Z</time>
      </trkpt>
      <trkpt lat="25.01667967427785" lon="121.52032842985265">
        <ele>8.284694278612733</ele>
        <time>2024-09-06T23:19:28Z</time>
      </trkpt>
      <trkpt lat="25.01677799700745" lon="121.52030004424672">
        <ele>8.448740717023611</ele>
        <time>2024-09-06T23:19:32Z</time>
      </trkpt>
      <trkpt lat="25.016873531163753" lon="121.52027592751001">
        <ele>6.191771937534213</ele>
        <time>2024-09-06T23:19:36Z</time>
      </trkpt>
      <trkpt lat="25.016969245686585" lon="121.52023517444297">
        <ele>6.231317064724863</ele>
        <time>2024-09-06T23:19:40Z</time>
      </trkpt>
      <trkpt lat="25.01707013592083" lon="121.52018587150147">
        <ele>7.916767254471779</ele>
        <time>2024-09-06T23:19:44Z</time>
      </trkpt>
      <trkpt lat="25.01715968290216" lon="121.52013847550901">
        <ele>6.872838944196701</ele>
        <time>2024-09-06T23:19:48Z</time>
      </trkpt>
      <trkpt lat="25.017246466163495" lon="121.52009342457218">
        <ele>5.602140046656132</ele>
        <time>2024-09-06T23:19:52Z</time>
      </trkpt>
      <trkpt lat="25.017331125716986" lon="121.52002976217135">
        <ele>5.6778311943635345</ele>
        <time>2024-09-06T23:19:56Z</time>
      </trkpt>
      <trkpt lat="25.017408360708462" lon="121.51997087315878">
        <ele>5.162611369974911</ele>
        <time>2024-09-06T23:20:00Z</time>
      </trkpt>
      <trkpt lat="25.017480878933263" lon="121.51991166025554">
        <ele>5.53134632576257</ele>
        <time>2024-09-06T23:20:04Z</time>
      </trkpt>
      <trkpt lat="25.017558047499218" lon="121.51982966392174">
        <ele>6.879176571033895</ele>
        <time>2024-09-06T23:20:08Z</time>
      </trkpt>
      <trkpt lat="25.017621015655045" lon="121.51974860742394">
        <ele>6.365588407963514</ele>
        <time>2024-09-06T23:20:12Z</time>
      </trkpt>
      <trkpt lat="25.017556613876543" lon="121.51967254008431">
        <ele>7.109858790412545</ele>
        <time>2024-09-06T23:20:32Z</time>
      </trkpt>
      <trkpt lat="25.017536478345676" lon="121.51957259436533">
        <ele>8.100286859087646</ele>
        <time>2024-09-06T23:20:40Z</time>
      </trkpt>
      <trkpt lat="25.017503195563048" lon="121.51946938025644">
        <ele>8.811076018027961</ele>
        <time>2024-09-06T23:20:50Z</time>
      </trkpt>
      <trkpt lat="25.017432308051728" lon="121.51934149874567">
        <ele>10.200311583466828</ele>
        <time>2024-09-06T23:21:10Z</time>
      </trkpt>
      <trkpt lat="25.017482308114875" lon="121.5192573174554">
        <ele>10.85451499465853</ele>
        <time>2024-09-06T23:21:38Z</time>
      </trkpt>
      <trkpt lat="25.01752421792095" lon="121.51916789576747">
        <ele>10.153791167773306</ele>
        <time>2024-09-06T23:21:47Z</time>
      </trkpt>
      <trkpt lat="25.017549749495924" lon="121.51906229858389">
        <ele>9.540607656352222</ele>
        <time>2024-09-06T23:21:57Z</time>
      </trkpt>
      <trkpt lat="25.017566955703643" lon="121.51896368458601">
        <ele>9.09640544001013</ele>
        <time>2024-09-06T23:22:05Z</time>
      </trkpt>
      <trkpt lat="25.017568861997734" lon="121.51885452749538">
        <ele>9.396106464788318</ele>
        <time>2024-09-06T23:22:14Z</time>
      </trkpt>
      <trkpt lat="25.017572552452958" lon="121.51874904782845">
        <ele>9.52535278443247</ele>
        <time>2024-09-06T23:22:22Z</time>
      </trkpt>
      <trkpt lat="25.01758279850996" lon="121.51864419217189">
        <ele>10.019246153533459</ele>
        <time>2024-09-06T23:22:30Z</time>
      </trkpt>
      <trkpt lat="25.01761017728174" lon="121.518545108841">
        <ele>10.791150360368192</ele>
        <time>2024-09-06T23:22:39Z</time>
      </trkpt>
      <trkpt lat="25.017660623070743" lon="121.5184621845139">
        <ele>10.813915166072547</ele>
        <time>2024-09-06T23:22:47Z</time>
      </trkpt>
      <trkpt lat="25.017733985112407" lon="121.51838186547077">
        <ele>10.252874599769711</ele>
        <time>2024-09-06T23:22:55.999000Z</time>
      </trkpt>
      <trkpt lat="25.017815239977523" lon="121.51832757956126">
        <ele>9.290039111860096</ele>
        <time>2024-09-06T23:23:04Z</time>
      </trkpt>
      <trkpt lat="25.017911201098105" lon="121.51830476980048">
        <ele>8.498621651902795</ele>
        <time>2024-09-06T23:23:12Z</time>
      </trkpt>
      <trkpt lat="25.017999718061162" lon="121.51828368925116">
        <ele>7.66407214757055</ele>
        <time>2024-09-06T23:23:19Z</time>
      </trkpt>
      <trkpt lat="25.01808909028497" lon="121.51824860814655">
        <ele>7.874659386463463</ele>
        <time>2024-09-06T23:23:26Z</time>
      </trkpt>
      <trkpt lat="25.018162250127745" lon="121.51817072299673">
        <ele>7.803278221748769</ele>
        <time>2024-09-06T23:23:34Z</time>
      </trkpt>
      <trkpt lat="25.01821798277467" lon="121.51808376026621">
        <ele>8.043911416083574</ele>
        <time>2024-09-06T23:23:42Z</time>
      </trkpt>
      <trkpt lat="25.018250654906094" lon="121.51798720875767">
        <time>2024-09-06T23:23:50Z</time>
      </trkpt>
    </trkseg>
  </trk>
</gpx>